[{"OBJECT_NAME":"STARLINK-4217","OBJECT_ID":"2022-076P","EPOCH":"2026-03-09T11:25:23.217024","MEAN_MOTION":15.08829001,"ECCENTRICITY":0.00014981,"INCLINATION":53.2169,"RA_OF_ASC_NODE":95.0808,"ARG_OF_PERICENTER":90.6536,"MEAN_ANOMALY":269.4628,"EPHEMERIS_TYPE":0,"CLASSIFICATION_TYPE":"U","NORAD_CAT_ID":52999,"ELEMENT_SET_NO":999,"REV_AT_EPOCH":20281,"BSTAR":0.00014496224,"MEAN_MOTION_DOT":2.019e-5,"MEAN_MOTION_DDOT":0},{"OBJECT_NAME":"IRIDIUM 33 DEB","OBJECT_ID":"1997-051QE","EPOCH":"2026-03-07T09:35:18.798432","MEAN_MOTION":15.07266806,"ECCENTRICITY":0.0013423,"INCLINATION":86.3519,"RA_OF_ASC_NODE":312.8742,"ARG_OF_PERICENTER":171.2899,"MEAN_ANOMALY":188.8573,"EPHEMERIS_TYPE":0,"CLASSIFICATION_TYPE":"U","NORAD_CAT_ID":35484,"ELEMENT_SET_NO":999,"REV_AT_EPOCH":63287,"BSTAR":0.0040001,"MEAN_MOTION_DOT":0.00060878,"MEAN_MOTION_DDOT":0}]
